date:2024-08-30T03:20:32+00:00
validtle:1
satid:47846
launchyear:2021
epoch:24209.58310954
epochday:209
tleage:34
tleclassification:U
active:0
name:STARLINK-2456
meananomly:182.1411
meanmotion:16.3558
rightascension:0.0000
declination:0.0000
semimajoraxis:6555.7146904228
altitudeatperigee:170
altitudeatapogee:185
inclination:53.0387
eccentricity:0.0011003
argumentofperigree:304.1314
nickname:STARLINK-2456
idesg:21018BM 
cosparid:2021-018BM
altkm:188.39296707442
velkms:7.794300357489
velkmh:28059
onumepoch:18824
onumnow:308431.20
otype:99
otypedesc:Reentry
status:99
timestamp:2024-07-27T13:59:41+00:00
nowjuliandate:2460552.6392623
nowepochdate:24243.1392592593
TLE:
STARLINK-2456
1 47846U 21018BM  24209.58310954  .29595975  12345-4  35030-2 0  9996
2 47846  53.0387 314.1998 0011003 304.1314 182.1411 16.35584136188246